[
    {
        "Altitude(m)": 612502.1966962705,
        "Argument of Periapsis(deg)": 0.0,
        "Eccentricity": 0.0,
        "Inclination(deg)": 60.0,
        "Latitude(deg)": -28.135979901507696,
        "Longitude(deg)": 142.14820729346513,
        "Mean Anomaly(deg)": -32.72729999999996,
        "RAAN(deg)": 260.0,
        "Satellite Name": "Test1 1164",
        "Satellite Number": 1164,
        "Semi-Major Axis(m)": 6980739.136638005,
        "Time(s)": 0
    },
    {
        "Altitude(m)": 612308.6447089451,
        "Argument of Periapsis(deg)": 0.00010418945913296404,
        "Eccentricity": 0.0,
        "Inclination(deg)": 60.0,
        "Latitude(deg)": -27.62303569722981,
        "Longitude(deg)": 142.5016823669795,
        "Mean Anomaly(deg)": -32.1071938545381,
        "RAAN(deg)": 259.99957995086027,
        "Satellite Name": "Test1 1164",
        "Satellite Number": 1164,
        "Semi-Major Axis(m)": 6980739.136638005,
        "Time(s)": 10
    }
]